NORAD_CAT_ID,OBJECT_NAME,OBJECT_TYPE,EPOCH,MEAN_MOTION,ECCENTRICITY,INCLINATION,RA_OF_ASC_NODE,ARG_OF_PERICENTER,MEAN_ANOMALY,BSTAR,MEAN_MOTION_DOT,MEAN_MOTION_DDOT,TLE_LINE0,TLE_LINE1,TLE_LINE2,SEMIMAJOR_AXIS,PERIOD,APOGEE,PERIGEE,DECAYED
54195.0,STARLINK-5258,PAYLOAD,2023-10-21 17:43:09,15.08841666,0.0001922,53.2172,299.5638,89.3053,270.8159,0.00019806,2.866e-05,0.0,0 STARLINK-5258,1 54195U 22141AQ  23294.73829886  .00002866  00000-0  19806-3 0  9994,2 54195  53.2172 299.5638 0001922  89.3053 270.8159 15.08841666 54893,6917.875,95.437,541.07,538.411,0.0
54195.0,STARLINK-5258,PAYLOAD,2023-10-22 08:01:36,15.0885302,0.0001888,53.217,296.8902,88.373,271.7479,0.00039798,6.054e-05,0.0,0 STARLINK-5258,1 54195U 22141AQ  23295.33445479  .00006054  00000-0  39798-3 0  9998,2 54195  53.2170 296.8902 0001888  88.3730 271.7479 15.08853020 54754,6917.841,95.437,541.012,538.4,0.0
54195.0,STARLINK-5258,PAYLOAD,2023-10-22 17:33:56,15.08841174,0.0002012,53.2179,295.1033,85.4787,274.6435,9.7717e-05,1.267e-05,0.0,0 STARLINK-5258,1 54195U 22141AQ  23295.73189854  .00001267  00000-0  97717-4 0  9991,2 54195  53.2179 295.1033 0002012  85.4787 274.6435 15.08841174 54818,6917.877,95.437,541.134,538.35,0.0
54195.0,STARLINK-5258,PAYLOAD,2023-10-23 06:17:01,15.08835039,0.0001957,53.2174,292.7273,89.2481,270.8735,-2.2251e-05,-6.42e-06,0.0,0 STARLINK-5258,1 54195U 22141AQ  23296.26182362 -.00000642  00000-0 -22251-4 0  9996,2 54195  53.2174 292.7273 0001957  89.2481 270.8735 15.08835039 55121,6917.896,95.438,541.114,538.407,0.0
54195.0,STARLINK-5258,PAYLOAD,2023-10-23 17:24:43,15.08836134,0.0001949,53.2175,290.6431,92.8279,267.2936,5.1653e-05,5.34e-06,0.0,0 STARLINK-5258,1 54195U 22141AQ  23296.72550480  .00000534  00000-0  51653-4 0  9993,2 54195  53.2175 290.6431 0001949  92.8279 267.2936 15.08836134 54962,6917.892,95.438,541.106,538.409,0.0
54195.0,STARLINK-5258,PAYLOAD,2023-10-24 04:32:25,15.08846681,0.0001755,53.2169,288.5603,94.1941,265.9252,0.00031171,4.677e-05,0.0,0 STARLINK-5258,1 54195U 22141AQ  23297.18918089  .00004677  00000-0  31171-3 0  9991,2 54195  53.2169 288.5603 0001755  94.1941 265.9252 15.08846681 55266,6917.86,95.437,540.939,538.511,0.0
54195.0,STARLINK-5258,PAYLOAD,2023-10-24 09:18:34,15.08849238,0.0001924,53.2168,287.668,97.5292,262.5919,0.00032112,4.827e-05,0.0,0 STARLINK-5258,1 54195U 22141AQ  23297.38789980  .00004827  00000-0  32112-3 0  9992,2 54195  53.2168 287.6680 0001924  97.5292 262.5919 15.08849238 55066,6917.852,95.437,541.048,538.386,0.0
54195.0,STARLINK-5258,PAYLOAD,2023-10-25 07:33:58,15.08841334,0.0001962,53.2165,283.5048,91.7831,268.3386,0.00020458,2.969e-05,0.0,0 STARLINK-5258,1 54195U 22141AQ  23298.31526294  .00002969  00000-0  20458-3 0  9998,2 54195  53.2165 283.5048 0001962  91.7831 268.3386 15.08841334 55435,6917.876,95.437,541.099,538.384,0.0
54195.0,STARLINK-5258,PAYLOAD,2023-10-26 09:00:08,15.08851641,0.0001847,53.2163,278.749,99.928,260.1921,0.00013468,1.857e-05,0.0,0 STARLINK-5258,1 54195U 22141AQ  23299.37509516  .00001857  00000-0  13468-3 0  9991,2 54195  53.2163 278.7490 0001847  99.9280 260.1921 15.08851641 55594,6917.845,95.437,540.988,538.432,0.0
54195.0,STARLINK-5258,PAYLOAD,2023-10-26 15:21:41,15.08844154,0.0001755,53.2163,277.5583,95.3787,264.7406,4.0583e-05,3.58e-06,0.0,0 STARLINK-5258,1 54195U 22141AQ  23299.64005879  .00000358  00000-0  40583-4 0  9998,2 54195  53.2163 277.5583 0001755  95.3787 264.7406 15.08844154 55638,6917.868,95.437,540.947,538.519,0.0
54195.0,STARLINK-5258,PAYLOAD,2023-10-27 07:15:32,15.08848479,0.0001814,53.2171,274.5865,97.0454,263.0745,0.00015496,2.18e-05,0.0,0 STARLINK-5258,1 54195U 22141AQ  23300.30245679  .00002180  00000-0  15496-3 0  9997,2 54195  53.2171 274.5865 0001814  97.0454 263.0745 15.08848479 55501,6917.854,95.437,540.974,538.465,0.0
54195.0,STARLINK-5258,PAYLOAD,2023-10-27 15:12:28,15.08841777,0.0001804,53.2178,273.0983,89.1245,270.9954,8.4177e-05,1.052e-05,0.0,0 STARLINK-5258,1 54195U 22141AQ  23300.63365991  .00001052  00000-0  84177-4 0  9993,2 54195  53.2178 273.0983 0001804  89.1245 270.9954 15.08841777 55550,6917.875,95.437,540.988,538.492,0.0
54195.0,STARLINK-5258,PAYLOAD,2023-10-28 05:30:55,15.088646,0.0002226,53.2164,270.4222,61.5783,298.5433,0.00039445,5.999e-05,0.0,0 STARLINK-5258,1 54195U 22141AQ  23301.22981432  .00005999  00000-0  39445-3 0  9994,2 54195  53.2164 270.4222 0002226  61.5783 298.5433 15.08864600 55875,6917.805,95.436,541.21,538.13,0.0
54195.0,STARLINK-5258,PAYLOAD,2023-10-28 15:03:15,15.08839116,0.0001719,53.2165,268.6374,89.4656,270.6533,1.6592e-05,-2.4e-07,0.0,0 STARLINK-5258,1 54195U 22141AQ  23301.62726529 -.00000024  00000-0  16592-4 0  9996,2 54195  53.2165 268.6374 0001719  89.4656 270.6533 15.08839116 55930,6917.883,95.438,540.937,538.559,0.0
54195.0,STARLINK-5258,PAYLOAD,2023-10-28 21:24:48,15.08833725,0.0001644,53.2175,267.4485,90.3918,269.7263,5.6981e-05,6.19e-06,0.0,0 STARLINK-5258,1 54195U 22141AQ  23301.89222946  .00000619  00000-0  56981-4 0  9994,2 54195  53.2175 267.4485 0001644  90.3918 269.7263 15.08833725 55748,6917.9,95.438,540.902,538.627,0.0
54195.0,STARLINK-5258,PAYLOAD,2023-10-29 06:57:06,15.08850588,0.000176,53.2169,265.6635,86.9489,273.1705,0.00037553,5.695e-05,0.0,0 STARLINK-5258,1 54195U 22141AQ  23302.28966294  .00005695  00000-0  37553-3 0  9991,2 54195  53.2169 265.6635 0001760  86.9489 273.1705 15.08850588 56030,6917.848,95.437,540.931,538.495,0.0
54195.0,STARLINK-5258,PAYLOAD,2023-10-30 05:12:31,15.08840132,0.0001955,53.2187,261.5,70.5355,289.5848,0.00055625,8.576e-05,0.0,0 STARLINK-5258,1 54195U 22141AQ  23303.21703193  .00008576  00000-0  55625-3 0  9993,2 54195  53.2187 261.5000 0001955  70.5355 289.5848 15.08840132 56176,6917.88,95.438,541.097,538.393,0.0
54195.0,STARLINK-5258,PAYLOAD,2023-10-30 14:44:50,15.08836264,0.0001943,53.2192,259.7146,79.448,280.6731,-0.00011599,-2.134e-05,0.0,0 STARLINK-5258,1 54195U 22141AQ  23303.61447058 -.00002134  00000-0 -11599-3 0  9990,2 54195  53.2192 259.7146 0001943  79.4480 280.6731 15.08836264 56002,6917.892,95.438,541.101,538.413,0.0
54195.0,STARLINK-5258,PAYLOAD,2023-10-31 03:27:55,15.08840603,0.000154,53.217,257.335,102.1081,258.0084,0.00010855,1.44e-05,0.0,0 STARLINK-5258,1 54195U 22141AQ  23304.14439108  .00001440  00000-0  10855-3 0  9997,2 54195  53.2170 257.3350 0001540 102.1081 258.0084 15.08840603 56319,6917.879,95.438,540.809,538.678,0.0
54195.0,STARLINK-5258,PAYLOAD,2023-10-31 14:35:37,15.08842651,0.0001508,53.2168,255.2553,93.6878,266.4286,0.00019799,2.865e-05,0.0,0 STARLINK-5258,1 54195U 22141AQ  23304.60807185  .00002865  00000-0  19799-3 0  9990,2 54195  53.2168 255.2553 0001508  93.6878 266.4286 15.08842651 56154,6917.872,95.437,540.781,538.694,0.0
54195.0,STARLINK-5258,PAYLOAD,2023-10-31 20:57:10,15.08841077,0.000155,53.2186,254.0648,99.0449,261.0719,0.00021361,3.113e-05,0.0,0 STARLINK-5258,1 54195U 22141AQ  23304.87303309  .00003113  00000-0  21361-3 0  9993,2 54195  53.2186 254.0648 0001550  99.0449 261.0719 15.08841077 56194,6917.877,95.437,540.814,538.67,0.0
54195.0,STARLINK-5258,PAYLOAD,2023-11-01 06:29:28,15.08856527,0.0001612,53.218,252.2821,96.8238,263.2938,0.00046556,7.132e-05,0.0,0 STARLINK-5258,1 54195U 22141AQ  23305.27046687  .00007132  00000-0  46556-3 0  9999,2 54195  53.2180 252.2821 0001612  96.8238 263.2938 15.08856527 56486,6917.83,95.437,540.81,538.58,0.0
54195.0,STARLINK-5258,PAYLOAD,2023-11-01 20:47:57,15.08842727,0.0001522,53.2167,249.6048,92.0955,268.0211,0.00019728,2.853e-05,0.0,0 STARLINK-5258,1 54195U 22141AQ  23305.86663222  .00002853  00000-0  19728-3 0  9990,2 54195  53.2167 249.6048 0001522  92.0955 268.0211 15.08842727 56570,6917.872,95.437,540.79,538.684,0.0
54195.0,STARLINK-5258,PAYLOAD,2023-11-02 03:09:29,15.08853934,0.0001273,53.2163,248.4183,94.3015,265.8123,0.00041491,6.324e-05,0.0,0 STARLINK-5258,1 54195U 22141AQ  23306.13158763  .00006324  00000-0  41491-3 0  9999,2 54195  53.2163 248.4183 0001273  94.3015 265.8123 15.08853934 56612,6917.838,95.437,540.583,538.822,0.0
54195.0,STARLINK-5258,PAYLOAD,2023-11-02 12:41:48,15.08846493,0.0001194,53.2172,246.6331,92.8455,267.2674,0.00025024,3.698e-05,0.0,0 STARLINK-5258,1 54195U 22141AQ  23306.52902796  .00003698  00000-0  25024-3 0  9990,2 54195  53.2172 246.6331 0001194  92.8455 267.2674 15.08846493 56440,6917.861,95.437,540.552,538.9,0.0
54195.0,STARLINK-5258,PAYLOAD,2023-11-03 03:00:16,15.08840867,0.0001477,53.2176,243.9564,91.3461,268.7701,-5.5232e-05,-1.167e-05,0.0,0 STARLINK-5258,1 54195U 22141AQ  23307.12518992 -.00001167  00000-0 -55232-4 0  9994,2 54195  53.2176 243.9564 0001477  91.3461 268.7701 15.08840867 56768,6917.878,95.437,540.765,538.721,0.0
54195.0,STARLINK-5258,PAYLOAD,2023-11-03 12:32:35,15.08842464,0.0001463,53.2176,242.1737,93.5581,266.5578,-2.6989e-05,-7.18e-06,0.0,0 STARLINK-5258,1 54195U 22141AQ  23307.52262950 -.00000718  00000-0 -26989-4 0  9996,2 54195  53.2176 242.1737 0001463  93.5581 266.5578 15.08842464 56597,6917.873,95.437,540.75,538.726,0.0
54195.0,STARLINK-5258,PAYLOAD,2023-11-04 12:23:22,15.08849359,0.0001205,53.2168,237.7151,95.524,264.589,0.00022574,3.308e-05,0.0,0 STARLINK-5258,1 54195U 22141AQ  23308.51622728  .00003308  00000-0  22574-3 0  9990,2 54195  53.2168 237.7151 0001205  95.5240 264.5890 15.08849359 56748,6917.852,95.437,540.55,538.883,0.0
54195.0,STARLINK-5258,PAYLOAD,2023-11-05 02:41:50,15.08850666,0.0001447,53.2169,235.0355,80.7577,279.3579,0.00028785,4.297e-05,0.0,0 STARLINK-5258,1 54195U 22141AQ  23309.11238906  .00004297  00000-0  28785-3 0  9996,2 54195  53.2169 235.0355 0001447  80.7577 279.3579 15.08850666 56834,6917.848,95.437,540.714,538.712,0.0
54195.0,STARLINK-5258,PAYLOAD,2023-11-05 21:46:27,15.08864162,0.0001505,53.2165,231.4677,85.2412,274.8752,0.0004602,7.048e-05,0.0,0 STARLINK-5258,1 54195U 22141AQ  23309.90726072  .00007048  00000-0  46020-3 0  9998,2 54195  53.2165 231.4677 0001505  85.2412 274.8752 15.08864162 56952,6917.807,95.436,540.713,538.63,0.0
